STARLINK-4591           
1 53607U 22104V   25308.09407625  .00000813  00000+0  69178-4 0  9997
2 53607  53.2155  82.9920 0001302  89.4055 270.7087 15.08838748176727
STARLINK-4647           
1 53608U 22104W   25307.77625242 -.00000122  00000+0  10450-4 0  9992
2 53608  53.2110  79.5581 0002543  95.8970 264.2313 15.08834599176628
STARLINK-4660           
1 53609U 22104X   25307.72971868 -.00000119  00000+0  10639-4 0  9991
2 53609  53.2149  84.2780 0001455  94.1966 265.9192 15.08835178176675
STARLINK-4610           
1 53610U 22104Y   25308.10101990  .00000466  00000+0  47361-4 0  9993
2 53610  53.2161  78.0319 0001394  85.9791 274.1361 15.08840348176671
STARLINK-4658           
1 53612U 22104AA  25308.09637839  .00000179  00000+0  29311-4 0  9995
2 53612  53.2161  78.0034 0001389  85.6844 274.4307 15.08840262176675
STARLINK-4655           
1 53613U 22104AB  25307.64007479 -.00000309  00000+0 -13320-5 0  9998
2 53613  53.2165  80.1300 0001342  85.2743 274.8402 15.08831979176601
STARLINK-4605           
1 53616U 22104AE  25308.49104483 -.00001367  00000+0 -67827-4 0  9993
2 53616  53.2174  66.0329 0001356 104.5845 255.5298 15.08840713176987
STARLINK-4609           
1 53619U 22104AH  25307.69156900  .00001146  00000+0  90079-4 0  9996
2 53619  53.2156  79.7419 0001162  88.8563 271.2562 15.08839626176617
STARLINK-4615           
1 53620U 22104AJ  25308.07427013 -.00002512  00000+0 -13980-3 0  9992
2 53620  53.2174  77.8667 0001248  85.6163 274.4971 15.08832103176789
STARLINK-4608           
1 53621U 22104AK  25308.08532435  .00000437  00000+0  45537-4 0  9995
2 53621  53.2161  77.9337 0001521  83.1382 276.9783 15.08838374176673
STARLINK-4568           
1 53622U 22104AL  25307.85344245 -.00000035  00000+0  15923-4 0  9991
2 53622  53.2166  78.6255 0001391  90.6211 269.4941 15.08836864176759
STARLINK-4573           
1 53623U 22104AM  25307.34931847  .00000921  00000+0  75973-4 0  9990
2 53623  53.2188  81.1591 0001272  86.6710 273.4428 15.08837406176672
STARLINK-4596           
1 53624U 22104AN  25307.66946165 -.00000041  00000+0  15495-4 0  9992
2 53624  53.2172  79.6054 0001370  84.7458 275.3691 15.08838356176723
STARLINK-4554           
1 53626U 22104AQ  25308.05584526  .00000584  00000+0  54791-4 0  9990
2 53626  53.2163  77.7531 0001455  91.2196 268.8963 15.08838614176793
STARLINK-4595           
1 53627U 22104AR  25308.06321381 -.00001720  00000+0 -90008-4 0  9996
2 53627  53.2163  77.7994 0001172  94.5021 265.6105 15.08850677176792
STARLINK-4600           
1 53628U 22104AS  25307.84975610  .00000486  00000+0  48621-4 0  9992
2 53628  53.2168  78.5988 0001345  90.5802 269.5344 15.08838879176760
