[{"OBJECT_NAME":"STARLINK-4591","OBJECT_ID":"2022-104V","EPOCH":"2025-11-04T02:15:28.188000","MEAN_MOTION":15.08838748,"ECCENTRICITY":0.00013025,"INCLINATION":53.2155,"RA_OF_ASC_NODE":82.992,"ARG_OF_PERICENTER":89.4055,"MEAN_ANOMALY":270.7087,"EPHEMERIS_TYPE":0,"CLASSIFICATION_TYPE":"U","NORAD_CAT_ID":53607,"ELEMENT_SET_NO":999,"REV_AT_EPOCH":17672,"BSTAR":6.9178252e-5,"MEAN_MOTION_DOT":8.13e-6,"MEAN_MOTION_DDOT":0},{"OBJECT_NAME":"STARLINK-4647","OBJECT_ID":"2022-104W","EPOCH":"2025-11-03T18:37:48.209088","MEAN_MOTION":15.08834599,"ECCENTRICITY":0.00025439,"INCLINATION":53.211,"RA_OF_ASC_NODE":79.5581,"ARG_OF_PERICENTER":95.897,"MEAN_ANOMALY":264.2313,"EPHEMERIS_TYPE":0,"CLASSIFICATION_TYPE":"U","NORAD_CAT_ID":53608,"ELEMENT_SET_NO":999,"REV_AT_EPOCH":17662,"BSTAR":1.04499e-5,"MEAN_MOTION_DOT":-1.22e-6,"MEAN_MOTION_DDOT":0},{"OBJECT_NAME":"STARLINK-4660","OBJECT_ID":"2022-104X","EPOCH":"2025-11-03T17:30:47.693952","MEAN_MOTION":15.08835178,"ECCENTRICITY":0.00014553,"INCLINATION":53.2149,"RA_OF_ASC_NODE":84.278,"ARG_OF_PERICENTER":94.1966,"MEAN_ANOMALY":265.9192,"EPHEMERIS_TYPE":0,"CLASSIFICATION_TYPE":"U","NORAD_CAT_ID":53609,"ELEMENT_SET_NO":999,"REV_AT_EPOCH":17667,"BSTAR":1.0638941e-5,"MEAN_MOTION_DOT":-1.19e-6,"MEAN_MOTION_DDOT":0},{"OBJECT_NAME":"STARLINK-4610","OBJECT_ID":"2022-104Y","EPOCH":"2025-11-04T02:25:28.119360","MEAN_MOTION":15.08840348,"ECCENTRICITY":0.00013947,"INCLINATION":53.2161,"RA_OF_ASC_NODE":78.0319,"ARG_OF_PERICENTER":85.9791,"MEAN_ANOMALY":274.1361,"EPHEMERIS_TYPE":0,"CLASSIFICATION_TYPE":"U","NORAD_CAT_ID":53610,"ELEMENT_SET_NO":999,"REV_AT_EPOCH":17667,"BSTAR":4.7360994e-5,"MEAN_MOTION_DOT":4.66e-6,"MEAN_MOTION_DDOT":0},{"OBJECT_NAME":"STARLINK-4658","OBJECT_ID":"2022-104AA","EPOCH":"2025-11-04T02:18:47.092896","MEAN_MOTION":15.08840262,"ECCENTRICITY":0.00013898,"INCLINATION":53.2161,"RA_OF_ASC_NODE":78.0034,"ARG_OF_PERICENTER":85.6844,"MEAN_ANOMALY":274.4307,"EPHEMERIS_TYPE":0,"CLASSIFICATION_TYPE":"U","NORAD_CAT_ID":53612,"ELEMENT_SET_NO":999,"REV_AT_EPOCH":17667,"BSTAR":2.9311383e-5,"MEAN_MOTION_DOT":1.79e-6,"MEAN_MOTION_DDOT":0},{"OBJECT_NAME":"STARLINK-4655","OBJECT_ID":"2022-104AB","EPOCH":"2025-11-03T15:21:42.461856","MEAN_MOTION":15.08831979,"ECCENTRICITY":0.00013428,"INCLINATION":53.2165,"RA_OF_ASC_NODE":80.13,"ARG_OF_PERICENTER":85.2743,"MEAN_ANOMALY":274.8402,"EPHEMERIS_TYPE":0,"CLASSIFICATION_TYPE":"U","NORAD_CAT_ID":53613,"ELEMENT_SET_NO":999,"REV_AT_EPOCH":17660,"BSTAR":-1.33202e-6,"MEAN_MOTION_DOT":-3.09e-6,"MEAN_MOTION_DDOT":0},{"OBJECT_NAME":"STARLINK-4605","OBJECT_ID":"2022-104AE","EPOCH":"2025-11-04T11:47:06.273312","MEAN_MOTION":15.08840713,"ECCENTRICITY":0.0001356,"INCLINATION":53.2174,"RA_OF_ASC_NODE":66.0329,"ARG_OF_PERICENTER":104.5845,"MEAN_ANOMALY":255.5298,"EPHEMERIS_TYPE":0,"CLASSIFICATION_TYPE":"U","NORAD_CAT_ID":53616,"ELEMENT_SET_NO":999,"REV_AT_EPOCH":17698,"BSTAR":-6.7827e-5,"MEAN_MOTION_DOT":-1.367e-5,"MEAN_MOTION_DDOT":0},{"OBJECT_NAME":"STARLINK-4609","OBJECT_ID":"2022-104AH","EPOCH":"2025-11-03T16:35:51.561600","MEAN_MOTION":15.08839626,"ECCENTRICITY":0.00011621,"INCLINATION":53.2156,"RA_OF_ASC_NODE":79.7419,"ARG_OF_PERICENTER":88.8563,"MEAN_ANOMALY":271.2562,"EPHEMERIS_TYPE":0,"CLASSIFICATION_TYPE":"U","NORAD_CAT_ID":53619,"ELEMENT_SET_NO":999,"REV_AT_EPOCH":17661,"BSTAR":9.0078727e-5,"MEAN_MOTION_DOT":1.146e-5,"MEAN_MOTION_DDOT":0},{"OBJECT_NAME":"STARLINK-4615","OBJECT_ID":"2022-104AJ","EPOCH":"2025-11-04T01:46:56.939232","MEAN_MOTION":15.08832103,"ECCENTRICITY":0.00012488,"INCLINATION":53.2174,"RA_OF_ASC_NODE":77.8667,"ARG_OF_PERICENTER":85.6163,"MEAN_ANOMALY":274.4971,"EPHEMERIS_TYPE":0,"CLASSIFICATION_TYPE":"U","NORAD_CAT_ID":53620,"ELEMENT_SET_NO":999,"REV_AT_EPOCH":17678,"BSTAR":-0.00013980138,"MEAN_MOTION_DOT":-2.512e-5,"MEAN_MOTION_DDOT":0},{"OBJECT_NAME":"STARLINK-4608","OBJECT_ID":"2022-104AK","EPOCH":"2025-11-04T02:02:52.023840","MEAN_MOTION":15.08838374,"ECCENTRICITY":0.00015212,"INCLINATION":53.2161,"RA_OF_ASC_NODE":77.9337,"ARG_OF_PERICENTER":83.1382,"MEAN_ANOMALY":276.9783,"EPHEMERIS_TYPE":0,"CLASSIFICATION_TYPE":"U","NORAD_CAT_ID":53621,"ELEMENT_SET_NO":999,"REV_AT_EPOCH":17667,"BSTAR":4.5537214e-5,"MEAN_MOTION_DOT":4.37e-6,"MEAN_MOTION_DDOT":0},{"OBJECT_NAME":"STARLINK-4568","OBJECT_ID":"2022-104AL","EPOCH":"2025-11-03T20:28:57.427680","MEAN_MOTION":15.08836864,"ECCENTRICITY":0.0001391,"INCLINATION":53.2166,"RA_OF_ASC_NODE":78.6255,"ARG_OF_PERICENTER":90.6211,"MEAN_ANOMALY":269.4941,"EPHEMERIS_TYPE":0,"CLASSIFICATION_TYPE":"U","NORAD_CAT_ID":53622,"ELEMENT_SET_NO":999,"REV_AT_EPOCH":17675,"BSTAR":1.5923e-5,"MEAN_MOTION_DOT":-3.5e-7,"MEAN_MOTION_DDOT":0},{"OBJECT_NAME":"STARLINK-4573","OBJECT_ID":"2022-104AM","EPOCH":"2025-11-03T08:23:01.115808","MEAN_MOTION":15.08837406,"ECCENTRICITY":0.0001272,"INCLINATION":53.2188,"RA_OF_ASC_NODE":81.1591,"ARG_OF_PERICENTER":86.671,"MEAN_ANOMALY":273.4428,"EPHEMERIS_TYPE":0,"CLASSIFICATION_TYPE":"U","NORAD_CAT_ID":53623,"ELEMENT_SET_NO":999,"REV_AT_EPOCH":17667,"BSTAR":7.5973136e-5,"MEAN_MOTION_DOT":9.21e-6,"MEAN_MOTION_DDOT":0},{"OBJECT_NAME":"STARLINK-4596","OBJECT_ID":"2022-104AN","EPOCH":"2025-11-03T16:04:01.486560","MEAN_MOTION":15.08838356,"ECCENTRICITY":0.00013704,"INCLINATION":53.2172,"RA_OF_ASC_NODE":79.6054,"ARG_OF_PERICENTER":84.7458,"MEAN_ANOMALY":275.3691,"EPHEMERIS_TYPE":0,"CLASSIFICATION_TYPE":"U","NORAD_CAT_ID":53624,"ELEMENT_SET_NO":999,"REV_AT_EPOCH":17672,"BSTAR":1.5494535e-5,"MEAN_MOTION_DOT":-4.1e-7,"MEAN_MOTION_DDOT":0},{"OBJECT_NAME":"STARLINK-4554","OBJECT_ID":"2022-104AQ","EPOCH":"2025-11-04T01:20:25.030464","MEAN_MOTION":15.08838614,"ECCENTRICITY":0.00014551,"INCLINATION":53.2163,"RA_OF_ASC_NODE":77.7531,"ARG_OF_PERICENTER":91.2196,"MEAN_ANOMALY":268.8963,"EPHEMERIS_TYPE":0,"CLASSIFICATION_TYPE":"U","NORAD_CAT_ID":53626,"ELEMENT_SET_NO":999,"REV_AT_EPOCH":17679,"BSTAR":5.4790889e-5,"MEAN_MOTION_DOT":5.84e-6,"MEAN_MOTION_DDOT":0},{"OBJECT_NAME":"STARLINK-4595","OBJECT_ID":"2022-104AR","EPOCH":"2025-11-04T01:31:01.673184","MEAN_MOTION":15.08850677,"ECCENTRICITY":0.00011728,"INCLINATION":53.2163,"RA_OF_ASC_NODE":77.7994,"ARG_OF_PERICENTER":94.5021,"MEAN_ANOMALY":265.6105,"EPHEMERIS_TYPE":0,"CLASSIFICATION_TYPE":"U","NORAD_CAT_ID":53627,"ELEMENT_SET_NO":999,"REV_AT_EPOCH":17679,"BSTAR":-9.0008034e-5,"MEAN_MOTION_DOT":-1.72e-5,"MEAN_MOTION_DDOT":0},{"OBJECT_NAME":"STARLINK-4600","OBJECT_ID":"2022-104AS","EPOCH":"2025-11-03T20:23:38.927040","MEAN_MOTION":15.08838879,"ECCENTRICITY":0.0001345,"INCLINATION":53.2168,"RA_OF_ASC_NODE":78.5988,"ARG_OF_PERICENTER":90.5802,"MEAN_ANOMALY":269.5344,"EPHEMERIS_TYPE":0,"CLASSIFICATION_TYPE":"U","NORAD_CAT_ID":53628,"ELEMENT_SET_NO":999,"REV_AT_EPOCH":17676,"BSTAR":4.8621e-5,"MEAN_MOTION_DOT":4.86e-6,"MEAN_MOTION_DDOT":0}]
